STARLINK-32273          
1 61956U 24209T   26068.52449591  .00019850  00000+0  68061-3 0  9991
2 61956  53.1605 143.0238 0001300  64.5828 295.5308 15.30196803 74871
KUIPER-00208            
1 67775U 26030M   26068.67231509  .00043852  00000+0  13883-2 0  9994
2 67775  51.8846 219.6993 0015525  57.3146 302.9333 15.32208734  5080
